start=new Date('2022-02-20T00:00:00.000Z').valueOf();
sats=[{"COUNTRY_CODE":"US","RA_OF_ASC_NODE":"200.6403","TIME_SYSTEM":"UTC","LAUNCH_DATE":"2021-02-04","EPHEMERIS_TYPE":"0","MEAN_MOTION":"15.06393840","TLE_LINE1":"1 47603U 21009BH  22050.79229873 -.00001175  00000-0 -60000-4 0  9994","INCLINATION":"53.0544","BSTAR":"-0.00006000000000","PERIAPSIS":"546.108","OBJECT_ID":"2021-009BH","MEAN_ANOMALY":"297.8477","OBJECT_NAME":"STARLINK-2008","CENTER_NAME":"EARTH","APOAPSIS":"548.357","ELEMENT_SET_NO":"999","ARG_OF_PERICENTER":"62.2677","EPOCH":"2022-02-19T19:00:54.610272","MEAN_MOTION_DOT":"-0.00001175","DECAY_DATE":null,"ECCENTRICITY":"0.00016240","REV_AT_EPOCH":"5760","SEMIMAJOR_AXIS":"6925.367","SITE":"AFETR","CLASSIFICATION_TYPE":"U","REF_FRAME":"TEME","MEAN_MOTION_DDOT":"0.0000000000000","OBJECT_TYPE":"PAYLOAD","FILE":"3308986","RCS_SIZE":"LARGE","TLE_LINE2":"2 47603  53.0544 200.6403 0001624  62.2677 297.8477 15.06393840 57602","MEAN_ELEMENT_THEORY":"SGP4","NORAD_CAT_ID":"47603","GP_ID":"196427073","PERIOD":"95.593"},{"EPHEMERIS_TYPE":"0","LAUNCH_DATE":"2021-02-04","TIME_SYSTEM":"UTC","RA_OF_ASC_NODE":"171.2609","COUNTRY_CODE":"US","OBJECT_NAME":"STARLINK-2021","MEAN_ANOMALY":"297.3028","OBJECT_ID":"2021-009BJ","PERIAPSIS":"546.246","INCLINATION":"53.0539","BSTAR":"0.00018158000000","TLE_LINE1":"1 47604U 21009BJ  22050.65499631  .00002424  00000-0  18158-3 0  9993","MEAN_MOTION":"15.06403729","APOAPSIS":"548.159","CENTER_NAME":"EARTH","MEAN_MOTION_DOT":"0.00002424","EPOCH":"2022-02-19T15:43:11.681184","ARG_OF_PERICENTER":"62.8101","ELEMENT_SET_NO":"999","SEMIMAJOR_AXIS":"6925.337","REV_AT_EPOCH":"5801","ECCENTRICITY":"0.00013810","DECAY_DATE":null,"OBJECT_TYPE":"PAYLOAD","MEAN_MOTION_DDOT":"0.0000000000000","REF_FRAME":"TEME","CLASSIFICATION_TYPE":"U","SITE":"AFETR","TLE_LINE2":"2 47604  53.0539 171.2609 0001381  62.8101 297.3028 15.06403729 58017","RCS_SIZE":"LARGE","FILE":"3308986","PERIOD":"95.592","GP_ID":"196427321","MEAN_ELEMENT_THEORY":"SGP4","NORAD_CAT_ID":"47604"},{"APOAPSIS":"379.085","CENTER_NAME":"EARTH","EPOCH":"2022-02-19T14:57:14.640768","MEAN_MOTION_DOT":"0.00044094","ELEMENT_SET_NO":"999","ARG_OF_PERICENTER":"30.8446","EPHEMERIS_TYPE":"0","LAUNCH_DATE":"2021-02-04","TIME_SYSTEM":"UTC","COUNTRY_CODE":"US","RA_OF_ASC_NODE":"142.6739","OBJECT_ID":"2021-009BK","MEAN_ANOMALY":"329.2607","OBJECT_NAME":"STARLINK-2023","INCLINATION":"53.0489","BSTAR":"0.00047780000000","PERIAPSIS":"378.189","TLE_LINE1":"1 47605U 21009BK  22050.62308612  .00044094  00000-0  47780-3 0  9991","MEAN_MOTION":"15.63125448","TLE_LINE2":"2 47605  53.0489 142.6739 0000663  30.8446 329.2607 15.63125448 58400","RCS_SIZE":"LARGE","FILE":"3308986","PERIOD":"92.123","GP_ID":"196428569","NORAD_CAT_ID":"47605","MEAN_ELEMENT_THEORY":"SGP4","SEMIMAJOR_AXIS":"6756.772","REV_AT_EPOCH":"5840","DECAY_DATE":null,"ECCENTRICITY":"0.00006630","OBJECT_TYPE":"PAYLOAD","MEAN_MOTION_DDOT":"0.0000000000000","REF_FRAME":"TEME","CLASSIFICATION_TYPE":"U","SITE":"AFETR"},{"GP_ID":"196428823","PERIOD":"95.591","NORAD_CAT_ID":"47606","MEAN_ELEMENT_THEORY":"SGP4","TLE_LINE2":"2 47606  53.0559 170.6533 0001386  70.7454 289.3685 15.06410866 58036","FILE":"3308986","RCS_SIZE":"LARGE","MEAN_MOTION_DDOT":"0.0000000000000","OBJECT_TYPE":"PAYLOAD","SITE":"AFETR","CLASSIFICATION_TYPE":"U","REF_FRAME":"TEME","REV_AT_EPOCH":"5803","SEMIMAJOR_AXIS":"6925.315","DECAY_DATE":null,"ECCENTRICITY":"0.00013860","EPOCH":"2022-02-19T18:59:34.440576","MEAN_MOTION_DOT":"0.00005439","ELEMENT_SET_NO":"999","ARG_OF_PERICENTER":"70.7454","CENTER_NAME":"EARTH","APOAPSIS":"548.140","OBJECT_ID":"2021-009BL","MEAN_ANOMALY":"289.3685","OBJECT_NAME":"STARLINK-2024","TLE_LINE1":"1 47606U 21009BL  22050.79137084  .00005439  00000-0  38363-3 0  9990","MEAN_MOTION":"15.06410866","BSTAR":"0.00038363000000","INCLINATION":"53.0559","PERIAPSIS":"546.220","LAUNCH_DATE":"2021-02-04","TIME_SYSTEM":"UTC","EPHEMERIS_TYPE":"0","COUNTRY_CODE":"US","RA_OF_ASC_NODE":"170.6533"},{"CENTER_NAME":"EARTH","APOAPSIS":"548.297","ELEMENT_SET_NO":"999","ARG_OF_PERICENTER":"61.1931","EPOCH":"2022-02-19T18:27:44.444160","MEAN_MOTION_DOT":"-0.00000269","COUNTRY_CODE":"US","RA_OF_ASC_NODE":"170.7438","LAUNCH_DATE":"2021-02-04","TIME_SYSTEM":"UTC","EPHEMERIS_TYPE":"0","MEAN_MOTION":"15.06390639","TLE_LINE1":"1 47607U 21009BM  22050.76926440 -.00000269  00000-0  80670-6 0  9998","INCLINATION":"53.0549","BSTAR":"0.00000080670000","PERIAPSIS":"546.188","OBJECT_ID":"2021-009BM","MEAN_ANOMALY":"298.9210","OBJECT_NAME":"STARLINK-2025","FILE":"3308986","RCS_SIZE":"LARGE","TLE_LINE2":"2 47607  53.0549 170.7438 0001523  61.1931 298.9210 15.06390639 58022","MEAN_ELEMENT_THEORY":"SGP4","NORAD_CAT_ID":"47607","GP_ID":"196427574","PERIOD":"95.593","DECAY_DATE":null,"ECCENTRICITY":"0.00015230","REV_AT_EPOCH":"5802","SEMIMAJOR_AXIS":"6925.377","SITE":"AFETR","REF_FRAME":"TEME","CLASSIFICATION_TYPE":"U","MEAN_MOTION_DDOT":"0.0000000000000","OBJECT_TYPE":"PAYLOAD"},{"MEAN_ANOMALY":"288.5512","OBJECT_ID":"2021-012A","OBJECT_NAME":"STARLINK-1528","INCLINATION":"53.0534","BSTAR":"-0.00000377540000","PERIAPSIS":"546.165","TLE_LINE1":"1 47620U 21012A   22050.85219167 -.00000338  00000-0 -37754-5 0  9990","MEAN_MOTION":"15.06402504","EPHEMERIS_TYPE":"0","TIME_SYSTEM":"UTC","LAUNCH_DATE":"2021-02-16","COUNTRY_CODE":"US","RA_OF_ASC_NODE":"230.3776","EPOCH":"2022-02-19T20:27:09.360288","MEAN_MOTION_DOT":"-0.00000338","ARG_OF_PERICENTER":"71.5640","ELEMENT_SET_NO":"999","APOAPSIS":"548.247","CENTER_NAME":"EARTH","OBJECT_TYPE":"PAYLOAD","MEAN_MOTION_DDOT":"0.0000000000000","REF_FRAME":"TEME","CLASSIFICATION_TYPE":"U","SITE":"AFETR","SEMIMAJOR_AXIS":"6925.341","REV_AT_EPOCH":"5708","DECAY_DATE":null,"ECCENTRICITY":"0.00015030","PERIOD":"95.592","GP_ID":"196428824","NORAD_CAT_ID":"47620","MEAN_ELEMENT_THEORY":"SGP4","TLE_LINE2":"2 47620  53.0534 230.3776 0001503  71.5640 288.5512 15.06402504 57089","RCS_SIZE":"LARGE","FILE":"3308986"},{"MEAN_MOTION_DOT":"0.00001291","EPOCH":"2022-02-19T21:52:05.691936","ELEMENT_SET_NO":"999","ARG_OF_PERICENTER":"60.2919","CENTER_NAME":"EARTH","APOAPSIS":"548.181","OBJECT_NAME":"STARLINK-1609","OBJECT_ID":"2021-012B","MEAN_ANOMALY":"299.8210","TLE_LINE1":"1 47621U 21012B   22050.91117699  .00001291  00000-0  10556-3 0  9991","MEAN_MOTION":"15.06402624","PERIAPSIS":"546.230","INCLINATION":"53.0549","BSTAR":"0.00010556000000","TIME_SYSTEM":"UTC","LAUNCH_DATE":"2021-02-16","EPHEMERIS_TYPE":"0","RA_OF_ASC_NODE":"230.1191","COUNTRY_CODE":"US","GP_ID":"196427575","PERIOD":"95.592","MEAN_ELEMENT_THEORY":"SGP4","NORAD_CAT_ID":"47621","TLE_LINE2":"2 47621  53.0549 230.1191 0001409  60.2919 299.8210 15.06402624 57100","FILE":"3308986","RCS_SIZE":"LARGE","MEAN_MOTION_DDOT":"0.0000000000000","OBJECT_TYPE":"PAYLOAD","SITE":"AFETR","REF_FRAME":"TEME","CLASSIFICATION_TYPE":"U","REV_AT_EPOCH":"5710","SEMIMAJOR_AXIS":"6925.341","ECCENTRICITY":"0.00014090","DECAY_DATE":null},{"APOAPSIS":"548.444","CENTER_NAME":"EARTH","ELEMENT_SET_NO":"999","ARG_OF_PERICENTER":"70.8229","EPOCH":"2022-02-19T18:35:41.370432","MEAN_MOTION_DOT":"0.00000683","COUNTRY_CODE":"US","RA_OF_ASC_NODE":"230.7194","EPHEMERIS_TYPE":"0","LAUNCH_DATE":"2021-02-16","TIME_SYSTEM":"UTC","INCLINATION":"53.0547","BSTAR":"0.00006472400000","PERIAPSIS":"545.899","MEAN_MOTION":"15.06413767","TLE_LINE1":"1 47622U 21012C   22050.77478438  .00000683  00000-0  64724-4 0  9998","OBJECT_ID":"2021-012C","MEAN_ANOMALY":"289.2959","OBJECT_NAME":"STARLINK-1645","RCS_SIZE":"LARGE","FILE":"3308986","TLE_LINE2":"2 47622  53.0547 230.7194 0001837  70.8229 289.2959 15.06413767 57073","NORAD_CAT_ID":"47622","MEAN_ELEMENT_THEORY":"SGP4","PERIOD":"95.591","GP_ID":"196427823","DECAY_DATE":null,"ECCENTRICITY":"0.00018370","SEMIMAJOR_AXIS":"6925.306","REV_AT_EPOCH":"5707","REF_FRAME":"TEME","CLASSIFICATION_TYPE":"U","SITE":"AFETR","OBJECT_TYPE":"PAYLOAD","MEAN_MOTION_DDOT":"0.0000000000000"},{"LAUNCH_DATE":"2021-02-16","TIME_SYSTEM":"UTC","EPHEMERIS_TYPE":"0","RA_OF_ASC_NODE":"165.6733","COUNTRY_CODE":"US","OBJECT_NAME":"STARLINK-1655","OBJECT_ID":"2021-012D","MEAN_ANOMALY":"305.8234","TLE_LINE1":"1 47623U 21012D   22050.78629581  .00001080  00000-0  91345-4 0  9998","MEAN_MOTION":"15.06406157","PERIAPSIS":"546.172","INCLINATION":"53.0548","BSTAR":"0.00009134500000","CENTER_NAME":"EARTH","APOAPSIS":"548.218","MEAN_MOTION_DOT":"0.00001080","EPOCH":"2022-02-19T18:52:15.957984","ARG_OF_PERICENTER":"54.2893","ELEMENT_SET_NO":"999","REV_AT_EPOCH":"5799","SEMIMAJOR_AXIS":"6925.330","ECCENTRICITY":"0.00014770","DECAY_DATE":null,"MEAN_MOTION_DDOT":"0.0000000000000","OBJECT_TYPE":"PAYLOAD","SITE":"AFETR","CLASSIFICATION_TYPE":"U","REF_FRAME":"TEME","TLE_LINE2":"2 47623  53.0548 165.6733 0001477  54.2893 305.8234 15.06406157 57990","FILE":"3308986","RCS_SIZE":"LARGE","GP_ID":"196428070","PERIOD":"95.592","NORAD_CAT_ID":"47623","MEAN_ELEMENT_THEORY":"SGP4"},{"SITE":"AFETR","REF_FRAME":"TEME","CLASSIFICATION_TYPE":"U","MEAN_MOTION_DDOT":"0.0000000000000","OBJECT_TYPE":"PAYLOAD","DECAY_DATE":null,"ECCENTRICITY":"0.00016210","REV_AT_EPOCH":"5737","SEMIMAJOR_AXIS":"6925.358","NORAD_CAT_ID":"47624","MEAN_ELEMENT_THEORY":"SGP4","GP_ID":"196428324","PERIOD":"95.592","FILE":"3308986","RCS_SIZE":"LARGE","TLE_LINE2":"2 47624  53.0549 210.7019 0001621  74.2401 285.8767 15.06396829 57373","TLE_LINE1":"1 47624U 21012E   22050.78031814 -.00000398  00000-0 -77972-5 0  9999","MEAN_MOTION":"15.06396829","BSTAR":"-0.00000779720000","INCLINATION":"53.0549","PERIAPSIS":"546.101","OBJECT_ID":"2021-012E","MEAN_ANOMALY":"285.8767","OBJECT_NAME":"STARLINK-1669","COUNTRY_CODE":"US","RA_OF_ASC_NODE":"210.7019","TIME_SYSTEM":"UTC","LAUNCH_DATE":"2021-02-16","EPHEMERIS_TYPE":"0","ARG_OF_PERICENTER":"74.2401","ELEMENT_SET_NO":"999","EPOCH":"2022-02-19T18:43:39.487296","MEAN_MOTION_DOT":"-0.00000398","CENTER_NAME":"EARTH","APOAPSIS":"548.346"}];
